TRANSIT 5B-5 (OPS 6582) 
1 00965U 64083D   19103.82558465  .00000006  00000-0 -49257-5 0  9997
2 00965  90.0200 192.7359 0041188  24.3927  91.1896 13.56727730688713
OSCAR 7 (AO-7)          
1 07530U 74089B   19103.94282983 -.00000023  00000-0  13559-3 0  9994
2 07530 101.7373  72.2963 0012480 113.0122 281.9266 12.53637578 32289
UOSAT 2 (UO-11)         
1 14781U 84021B   19104.12071293  .00000105  00000-0  19073-4 0  9996
2 14781  97.6175 131.9180 0008837 165.3213 194.8259 14.83076119889045
NOAA 9                  
1 15427U 84123A   19103.87335049  .00000002  00000-0  23791-4 0  9998
2 15427  98.8860  52.9471 0014081 219.6085 204.8671 14.16064634772350
LUSAT (LO-19)           
1 20442U 90005G   19103.89186500  .00000006  00000-0  18493-4 0  9992
2 20442  98.6432  46.0225 0011573 349.2428  10.8506 14.32921920526897
ITAMSAT (IO-26)         
1 22826U 93061D   19103.95801596  .00000017  00000-0  24553-4 0  9997
2 22826  98.8940  91.1077 0008992 172.4886 187.6431 14.30388826332505
RADIO ROSTO (RS-15)     
1 23439U 94085A   19103.88514558 -.00000059  00000-0 -47085-3 0  9998
2 23439  64.8161 222.5409 0147653 125.9304 235.5422 11.27567950   470
JAS-2 (FO-29)           
1 24278U 96046B   19103.88838232  .00000006  00000-0  40440-4 0  9996
2 24278  98.5275 266.2562 0351102  50.8053 312.3718 13.53090175118653
NOAA 15                 
1 25338U 98030A   19103.94736972  .00000026  00000-0  29762-4 0  9990
2 25338  98.7526 125.3134 0011539  76.4305 283.8160 14.25901906 87621
TECHSAT 1B (GO-32)      
1 25397U 98043D   19104.39873443 -.00000008  00000-0  15924-4 0  9990
2 25397  98.6836  45.3532 0000834 166.1601 193.9601 14.23663441 78587
ISS (ZARYA)             
1 25544U 98067A   19104.70331713  .00003719  00000-0  66954-4 0  9994
2 25544  51.6453 316.7808 0001815 181.9822 292.7325 15.52555367165393
ORSTED                  
1 25635U 99008B   19103.90124308  .00000104  00000-0  32881-4 0  9999
2 25635  96.4749 223.4715 0137063 284.1005  74.4993 14.48140450 62573
PCSAT (NO-44)           
1 26931U 01043C   19103.71120300 -.00000035  00000-0  18475-4 0  9995
2 26931  67.0510 173.9419 0005846 277.9156  82.1282 14.30538077915530
SAUDISAT 1C (SO-50)     
1 27607U 02058C   19104.55031418  .00000027  00000-0  24600-4 0  9994
2 27607  64.5545 248.7542 0082401 268.9217  90.2444 14.75535430877423
CUTE-1 (CO-55)          
1 27844U 03031E   19103.94181194  .00000067  00000-0  49790-4 0  9999
2 27844  98.6863 113.1323 0009096 215.7089 144.3481 14.22169830818904
CUBESAT XI-IV (CO-57)   
1 27848U 03031J   19104.54862647  .00000049  00000-0  42260-4 0  9994
2 27848  98.6941 114.2154 0008844 225.9640 134.0809 14.21766144818882
MOZHAYETS 4 (RS-22)     
1 27939U 03042A   19104.55920420  .00000176  00000-0  40060-4 0  9999
2 27939  98.0292 241.6871 0011294 273.0772  86.9148 14.66769285830995
INMARSAT 4-F1           
1 28628U 05009A   19103.92133949 -.00000275  00000-0  00000-0 0  9999
2 28628   2.9824  21.7137 0003440   9.0699 286.1941  1.00272509 51382
NOAA 18                 
1 28654U 05018A   19103.89714652  .00000070  00000-0  62747-4 0  9992
2 28654  99.1042 149.8544 0014165   7.2170 352.9203 14.12415555716136
CUBESAT XI 5            
1 28895U 05043F   19104.08509110  .00000178  00000-0  43065-4 0  9991
2 28895  97.9482 249.1038 0016549 194.1965 165.8774 14.63648302717886
METOP-A                 
1 29499U 06044A   19103.96398337 -.00000004  00000-0  17742-4 0  9999
2 29499  98.5821 158.9960 0001987  79.8838  94.5834 14.21546395647543
CARTOSAT-2 (IRS-P7)     
1 29710U 07001B   19104.52092214 -.00000115  00000-0 -85838-5 0  9993
2 29710  97.9796 164.1503 0001847 102.9624 257.1811 14.78656754661665
FALCONSAT 3             
1 30776U 07006E   19104.49818289  .00002882  00000-0  81920-4 0  9994
2 30776  35.4343 146.6661 0003597 246.3633 113.6716 15.35901674670658
CAPE1                   
1 31130U 07012P   19103.81763623  .00000160  00000-0  44756-4 0  9995
2 31130  98.1578  45.3450 0094864 292.7897  66.3301 14.56402586636122
CARTOSAT-2A             
1 32783U 08021A   19104.43169083 -.00002049  00000-0 -27253-3 0  9992
2 32783  97.9790 164.4335 0011443 324.5345  35.5167 14.78629622591594
CUTE-1.7+APD II (CO-65) 
1 32785U 08021C   19104.20099442  .00000267  00000-0  34410-4 0  9992
2 32785  97.5498 107.0068 0014524 117.1075 243.1626 14.88278235593941
COMPASS-1               
1 32787U 08021E   19104.00926431  .00000429  00000-0  45981-4 0  9994
2 32787  97.5111 118.8672 0014071  75.2702 285.0077 14.93305626594840
AAUSAT-II (CUBESAT-2)   
1 32788U 08021F   19104.04349027  .00000530  00000-0  53846-4 0  9991
2 32788  97.5013 122.6670 0013225  64.3321 295.9264 14.94657853595111
DELFI-C3 (DO-64)        
1 32789U 08021G   19104.20979268  .00001650  00000-0  11472-3 0  9998
2 32789  97.4719 155.8319 0011788 357.6766   2.4405 15.06796620597104
SEEDS II (CO-66)        
1 32791U 08021J   19104.53070988  .00000312  00000-0  37073-4 0  9998
2 32791  97.5298 113.2212 0015049  94.8324 265.4613 14.90774632594407
YUBILEINY (RS-30)       
1 32953U 08025A   19104.37201562  .00000020  00000-0  75656-4 0  9993
2 32953  82.5064 185.3806 0017827 271.1405  88.7629 12.43088755494195
FENGYUN 3A              
1 32958U 08026A   19104.53374554 -.00000064  00000-0 -11228-4 0  9994
2 32958  98.3804 108.3315 0009328 136.5304 223.6611 14.18599275563877
PRISM (HITOMI)          
1 33493U 09002B   19103.80685214  .00000441  00000-0  44209-4 0  9993
2 33493  98.1229  22.2653 0016461  44.8262 315.4285 14.96581627555281
STARS                   
1 33498U 09002G   19104.53774213  .00000222  00000-0  37738-4 0  9993
2 33498  98.3146 311.5731 0011497  23.6165 336.5570 14.78959079550374
KKS-1 (KISEKI)          
1 33499U 09002H   19103.89195043  .00000144  00000-0  29338-4 0  9990
2 33499  98.3544 300.4838 0010314  60.2240 299.9992 14.75422781549099
NOAA 19                 
1 33591U 09005A   19103.94685757  .00000059  00000-0  57625-4 0  9993
2 33591  99.1773  93.4904 0013607 199.0659 161.0004 14.12344219524367
SWISSCUBE               
1 35932U 09051B   19104.39248315  .00000147  00000-0  44377-4 0  9998
2 35932  98.5805 268.4785 0007720  15.3588 344.7842 14.56262905507278
BEESAT                  
1 35933U 09051C   19103.91858094  .00000137  00000-0  41944-4 0  9993
2 35933  98.5838 269.7168 0006276  31.8934 328.2642 14.56354761507230
ITUPSAT 1               
1 35935U 09051E   19104.41961076  .00000110  00000-0  36492-4 0  9999
2 35935  98.5949 270.4746 0008469  24.1341 336.0250 14.55517773507144
XIWANG-1 (HO-68)        
1 36122U 09072B   19104.44771897 -.00000041  00000-0  40681-5 0  9994
2 36122 100.0734 109.8946 0007662 129.0000 231.1797 13.16349056448296
CARTOSAT-2B             
1 36795U 10035A   19104.46854386  .00000062  00000-0  15658-4 0  9995
2 36795  97.9769 164.1287 0015647  38.6977 321.5360 14.78640875472644
TISAT 1                 
1 36799U 10035E   19104.45471323  .00000327  00000-0  39175-4 0  9998
2 36799  98.1459 254.4803 0011047 303.1474  56.8683 14.91051948475041
FENGYUN 3B (FENG-YUN-3B)
1 37214U 10059A   19104.49773660  .00000003  00000-0  24419-4 0  9996
2 37214  98.9935  75.9166 0018155  47.8676 312.4032 14.15911828436833
JUGNU                   
1 37839U 11058B   19103.14125572  .00000317  00000-0  27187-4 0  9996
2 37839  19.9625  18.3437 0018812 313.4982 188.8048 14.12646999387837
SRMSAT                  
1 37841U 11058D   19103.30811751  .00000293  00000-0  15910-4 0  9992
2 37841  19.9721  72.7310 0011878 186.5135 321.1871 14.10628593387301
M-CUBED & EXP-1 PRIME   
1 37855U 11061F   19104.19609251  .00000915  00000-0  54085-4 0  9996
2 37855 101.7242 326.1493 0173876 270.9528  87.1766 15.05263881406925
ALMASAT-1               
1 38078U 12006B   19104.49464597  .00060148  49009-5  37372-3 0  9999
2 38078  69.4274  92.3961 0176331   3.2412 131.0676 15.58541981387316
HORYU 2                 
1 38340U 12025D   19103.87262876  .00000194  00000-0  36369-4 0  9993
2 38340  98.3367 140.4622 0010857 340.3445  19.7344 14.75691304371457
METOP-B                 
1 38771U 12049A   19103.90807872 -.00000008  00000-0  16316-4 0  9997
2 38771  98.7104 164.1320 0001991 122.4291 226.4156 14.21485132340852
SARAL                   
1 39086U 13009A   19104.18802257  .00000002  00000-0  17094-4 0  9994
2 39086  98.5420 291.3915 0002258  89.0809 271.0634 14.32035342320428
AAUSAT3                 
1 39087U 13009B   19104.52971894  .00000106  00000-0  51837-4 0  9995
2 39087  98.4940 311.9096 0013233 118.1050 242.1510 14.35710646321121
STRAND-1                
1 39090U 13009E   19103.54978805  .00000021  00000-0  22645-4 0  9990
2 39090  98.4954 310.5928 0010151 121.5888 238.6289 14.35077816320905
BRITE-AUSTRIA           
1 39091U 13009F   19103.89200577  .00000015  00000-0  20272-4 0  9990
2 39091  98.4931 310.1351 0011435 127.9097 232.3124 14.35105165320969
UNIBRITE (CANX-3A)      
1 39092U 13009G   19103.81027771  .00000028  00000-0  25143-4 0  9992
2 39092  98.4949 309.7105 0010395 122.1602 238.0593 14.34978922320920
SOMP                    
1 39134U 13015E   19103.83220496  .00001906  00000-0  96901-4 0  9993
2 39134  64.8641 233.7794 0024812 315.5719  44.3418 15.19983987330587
BEESAT-3                
1 39135U 13015F   19103.90164302  .00001346  00000-0  76906-4 0  9996
2 39135  64.8662 250.9455 0011691 315.2704  44.7479 15.17319780329871
BEESAT-2                
1 39136U 13015G   19103.84834913  .00001365  00000-0  79028-4 0  9991
2 39136  64.8680 254.7368 0012731 308.5630  51.4354 15.16761420329795
NEE-01 PEGASUS (NEE-01) 
1 39151U 13018B   19104.50564225  .00000173  00000-0  29843-4 0  9997
2 39151  97.9685 201.4153 0018182  56.2353 304.0587 14.80021773322080
CUBEBUG-1 (CAPITAN BETO)
1 39153U 13018D   19104.34249205  .00000208  00000-0  34034-4 0  9996
2 39153  97.9743 202.8519 0018013  53.7230 306.5643 14.80539484322158
ESTCUBE 1               
1 39161U 13021C   19104.47450382  .00000200  00000-0  39487-4 0  9992
2 39161  97.9888 190.4925 0009458 168.0047 192.1400 14.72179466318773
